[{"OBJECT_NAME":"ICEYE-X40","OBJECT_ID":"2024-149CK","EPOCH":"2026-03-09T18:13:16.348800","MEAN_MOTION":14.97556326,"ECCENTRICITY":0.00059832,"INCLINATION":97.6865,"RA_OF_ASC_NODE":146.8579,"ARG_OF_PERICENTER":65.2061,"MEAN_ANOMALY":294.9783,"EPHEMERIS_TYPE":0,"CLASSIFICATION_TYPE":"U","NORAD_CAT_ID":60549,"ELEMENT_SET_NO":999,"REV_AT_EPOCH":8519,"BSTAR":0.00028351559,"MEAN_MOTION_DOT":3.253e-5,"MEAN_MOTION_DDOT":0},{"OBJECT_NAME":"STARLINK-35886","OBJECT_ID":"2025-280T","EPOCH":"2026-03-09T22:09:25.068384","MEAN_MOTION":14.98329417,"ECCENTRICITY":0.00026501,"INCLINATION":70.0028,"RA_OF_ASC_NODE":333.7521,"ARG_OF_PERICENTER":249.5828,"MEAN_ANOMALY":110.5047,"EPHEMERIS_TYPE":0,"CLASSIFICATION_TYPE":"U","NORAD_CAT_ID":66838,"ELEMENT_SET_NO":999,"REV_AT_EPOCH":1611,"BSTAR":0.00028740096,"MEAN_MOTION_DOT":3.338e-5,"MEAN_MOTION_DDOT":0}]
